STARLINK-2103
1 27383C 21005AL  21325.13940449 -.00015537  00000-0 -10408-2 0  3251
2 27383  53.0531 227.6072 0001889  57.9030  92.4051 15.06419612    17
